{"type": "FeatureCollection", "features": [ {"type": "Feature", "properties": {"norad_id": 34976, "name": "COSMOS 2251 DEB", "group": "cosmos-2251-debris", "lat": 67.62333148883027, "lon": -13.026449351485574, "alt_km": 629.8458151009127, "timestamp": "2025-12-14T09:36:23.433740+00:00", "meta": {"OBJECT_NAME": "COSMOS 2251 DEB", "OBJECT_ID": "1993-036AFF", "EPOCH": "2025-12-13T14:17:16.255392", "MEAN_MOTION": 14.76594044, "ECCENTRICITY": 0.00478037, "INCLINATION": 74.0574, "RA_OF_ASC_NODE": 304.5737, "ARG_OF_PERICENTER": 351.1956, "MEAN_ANOMALY": 125.2716, "EPHEMERIS_TYPE": 0, "CLASSIFICATION_TYPE": "U", "NORAD_CAT_ID": 34976, "ELEMENT_SET_NO": 999, "REV_AT_EPOCH": 88286, "BSTAR": 0.0019348412, "MEAN_MOTION_DOT": 0.0001376, "MEAN_MOTION_DDOT": 0}, "tle": {"line1": "1 34976U 93036AFF 25347.59532703  .00013760  00000+0  19348-2 0  9998", "line2": "2 34976  74.0574 304.5737 0047803 351.1956 125.2716 14.76594044882869"}}, "geometry": {"type": "Point", "coordinates": [-13.026449351485574, 67.62333148883027]}}, {"type": "Feature", "properties": {"norad_id": 34979, "name": "COSMOS 2251 DEB", "group": "cosmos-2251-debris", "lat": 39.131995198227415, "lon": 70.53202736070695, "alt_km": 659.5739794214915, "timestamp": "2025-12-14T09:36:23.433750+00:00", "meta": {"OBJECT_NAME": "COSMOS 2251 DEB", "OBJECT_ID": "1993-036AFJ", "EPOCH": "2025-12-13T11:52:57.517824", "MEAN_MOTION": 14.79381451, "ECCENTRICITY": 0.00490412, "INCLINATION": 74.0395, "RA_OF_ASC_NODE": 265.7769, "ARG_OF_PERICENTER": 343.5547, "MEAN_ANOMALY": 16.4035, "EPHEMERIS_TYPE": 0, "CLASSIFICATION_TYPE": "U", "NORAD_CAT_ID": 34979, "ELEMENT_SET_NO": 999, "REV_AT_EPOCH": 88231, "BSTAR": 0.0021359315, "MEAN_MOTION_DOT": 0.00016256, "MEAN_MOTION_DDOT": 0}, "tle": {"line1": "1 34979U 93036AFJ 25347.49511016  .00016256  00000+0  21359-2 0  9992", "line2": "2 34979  74.0395 265.7769 0049041 343.5547  16.4035 14.79381451882317"}}, "geometry": {"type": "Point", "coordinates": [70.53202736070695, 39.131995198227415]}}, {"type": "Feature", "properties": {"norad_id": 34990, "name": "COSMOS 2251 DEB", "group": "cosmos-2251-debris", "lat": 20.922609814003017, "lon": -105.46102814682068, "alt_km": 746.3042161671765, "timestamp": "2025-12-14T09:36:23.433760+00:00", "meta": {"OBJECT_NAME": "COSMOS 2251 DEB", "OBJECT_ID": "1993-036AFN", "EPOCH": "2025-12-11T11:35:34.713024", "MEAN_MOTION": 14.42369611, "ECCENTRICITY": 0.001637, "INCLINATION": 74.0455, "RA_OF_ASC_NODE": 253.6657, "ARG_OF_PERICENTER": 317.4187, "MEAN_ANOMALY": 42.5699, "EPHEMERIS_TYPE": 0, "CLASSIFICATION_TYPE": "U", "NORAD_CAT_ID": 34990, "ELEMENT_SET_NO": 999, "REV_AT_EPOCH": 87328, "BSTAR": 0.00064071244, "MEAN_MOTION_DOT": 2.095e-05, "MEAN_MOTION_DDOT": 0}, "tle": {"line1": "1 34990U 93036AFN 25345.48304066  .00002095  00000+0  64071-3 0  9992", "line2": "2 34990  74.0455 253.6657 0016370 317.4187  42.5699 14.42369611873284"}}, "geometry": {"type": "Point", "coordinates": [-105.46102814682068, 20.922609814003017]}}, {"type": "Feature", "properties": {"norad_id": 34997, "name": "COSMOS 2251 DEB", "group": "cosmos-2251-debris", "lat": -24.376294407798188, "lon": 135.60162396853988, "alt_km": 729.4011162438528, "timestamp": "2025-12-14T09:36:23.433770+00:00", "meta": {"OBJECT_NAME": "COSMOS 2251 DEB", "OBJECT_ID": "1993-036AFV", "EPOCH": "2025-12-12T15:07:37.525152", "MEAN_MOTION": 14.4555903, "ECCENTRICITY": 0.00978968, "INCLINATION": 73.8801, "RA_OF_ASC_NODE": 311.4025, "ARG_OF_PERICENTER": 286.4207, "MEAN_ANOMALY": 72.6207, "EPHEMERIS_TYPE": 0, "CLASSIFICATION_TYPE": "U", "NORAD_CAT_ID": 34997, "ELEMENT_SET_NO": 999, "REV_AT_EPOCH": 70745, "BSTAR": 0.0024908472, "MEAN_MOTION_DOT": 9.311e-05, "MEAN_MOTION_DDOT": 0}, "tle": {"line1": "1 34997U 93036AFV 25346.63029543  .00009311  00000+0  24908-2 0  9993", "line2": "2 34997  73.8801 311.4025 0097896 286.4207  72.6207 14.45559030707458"}}, "geometry": {"type": "Point", "coordinates": [135.60162396853988, -24.376294407798188]}}, {"type": "Feature", "properties": {"norad_id": 34998, "name": "COSMOS 2251 DEB", "group": "cosmos-2251-debris", "lat": 66.20428850041985, "lon": -63.69739063819196, "alt_km": 735.7199691359929, "timestamp": "2025-12-14T09:36:23.433780+00:00", "meta": {"OBJECT_NAME": "COSMOS 2251 DEB", "OBJECT_ID": "1993-036AFW", "EPOCH": "2025-12-13T11:43:01.459776", "MEAN_MOTION": 14.4928717, "ECCENTRICITY": 0.00211483, "INCLINATION": 74.0098, "RA_OF_ASC_NODE": 158.5778, "ARG_OF_PERICENTER": 303.8852, "MEAN_ANOMALY": 87.1839, "EPHEMERIS_TYPE": 0, "CLASSIFICATION_TYPE": "U", "NORAD_CAT_ID": 34998, "ELEMENT_SET_NO": 999, "REV_AT_EPOCH": 87431, "BSTAR": 0.00093389217, "MEAN_MOTION_DOT": 3.547e-05, "MEAN_MOTION_DDOT": 0}, "tle": {"line1": "1 34998U 93036AFW 25347.48821134  .00003547  00000+0  93389-3 0  9999", "line2": "2 34998  74.0098 158.5778 0021148 303.8852  87.1839 14.49287170874311"}}, "geometry": {"type": "Point", "coordinates": [-63.69739063819196, 66.20428850041985]}}, {"type": "Feature", "properties": {"norad_id": 35000, "name": "COSMOS 2251 DEB", "group": "cosmos-2251-debris", "lat": -73.77951029863479, "lon": 113.2690661810382, "alt_km": 246.16317965498, "timestamp": "2025-12-14T09:36:23.433790+00:00", "meta": {"OBJECT_NAME": "COSMOS 2251 DEB", "OBJECT_ID": "1993-036AFY", "EPOCH": "2025-12-10T00:39:45.535104", "MEAN_MOTION": 15.84722247, "ECCENTRICITY": 0.00096992, "INCLINATION": 73.9939, "RA_OF_ASC_NODE": 204.1935, "ARG_OF_PERICENTER": 175.3945, "MEAN_ANOMALY": 184.7377, "EPHEMERIS_TYPE": 0, "CLASSIFICATION_TYPE": "U", "NORAD_CAT_ID": 35000, "ELEMENT_SET_NO": 999, "REV_AT_EPOCH": 88472, "BSTAR": 0.007821664, "MEAN_MOTION_DOT": 0.0209211, "MEAN_MOTION_DDOT": 0}, "tle": {"line1": "1 35000U 93036AFY 25344.02761036  .02092110  00000+0  78217-2 0  9993", "line2": "2 35000  73.9939 204.1935 0009699 175.3945 184.7377 15.84722247884729"}}, "geometry": {"type": "Point", "coordinates": [113.2690661810382, -73.77951029863479]}}, {"type": "Feature", "properties": {"norad_id": 35012, "name": "COSMOS 2251 DEB", "group": "cosmos-2251-debris", "lat": 55.49475476594479, "lon": 133.27362685064077, "alt_km": 791.9177396430896, "timestamp": "2025-12-14T09:36:23.433800+00:00", "meta": {"OBJECT_NAME": "COSMOS 2251 DEB", "OBJECT_ID": "1993-036AFZ", "EPOCH": "2025-12-13T08:25:01.518528", "MEAN_MOTION": 14.45550453, "ECCENTRICITY": 0.0081657, "INCLINATION": 74.0206, "RA_OF_ASC_NODE": 110.5964, "ARG_OF_PERICENTER": 250.6394, "MEAN_ANOMALY": 108.5923, "EPHEMERIS_TYPE": 0, "CLASSIFICATION_TYPE": "U", "NORAD_CAT_ID": 35012, "ELEMENT_SET_NO": 999, "REV_AT_EPOCH": 87570, "BSTAR": 0.00029402698, "MEAN_MOTION_DOT": 1.052e-05, "MEAN_MOTION_DDOT": 0}, "tle": {"line1": "1 35012U 93036AFZ 25347.35071202  .00001052  00000+0  29403-3 0  9991", "line2": "2 35012  74.0206 110.5964 0081657 250.6394 108.5923 14.45550453875705"}}, "geometry": {"type": "Point", "coordinates": [133.27362685064077, 55.49475476594479]}}, {"type": "Feature", "properties": {"norad_id": 35014, "name": "COSMOS 2251 DEB", "group": "cosmos-2251-debris", "lat": -16.76656877790149, "lon": 35.327371354673424, "alt_km": 652.1162550511335, "timestamp": "2025-12-14T09:36:23.433811+00:00", "meta": {"OBJECT_NAME": "COSMOS 2251 DEB", "OBJECT_ID": "1993-036AGB", "EPOCH": "2025-12-10T11:17:04.408224", "MEAN_MOTION": 14.75108648, "ECCENTRICITY": 0.0007489, "INCLINATION": 73.9993, "RA_OF_ASC_NODE": 47.9831, "ARG_OF_PERICENTER": 224.1256, "MEAN_ANOMALY": 135.932, "EPHEMERIS_TYPE": 0, "CLASSIFICATION_TYPE": "U", "NORAD_CAT_ID": 35014, "ELEMENT_SET_NO": 999, "REV_AT_EPOCH": 71303, "BSTAR": 0.0024781418, "MEAN_MOTION_DOT": 0.00016732, "MEAN_MOTION_DDOT": 0}, "tle": {"line1": "1 35014U 93036AGB 25344.47018991  .00016732  00000+0  24781-2 0  9993", "line2": "2 35014  73.9993  47.9831 0007489 224.1256 135.9320 14.75108648713038"}}, "geometry": {"type": "Point", "coordinates": [35.327371354673424, -16.76656877790149]}}, {"type": "Feature", "properties": {"norad_id": 35015, "name": "COSMOS 2251 DEB", "group": "cosmos-2251-debris", "lat": -22.511918012445275, "lon": 58.46395004292776, "alt_km": 752.5038520594298, "timestamp": "2025-12-14T09:36:23.433821+00:00", "meta": {"OBJECT_NAME": "COSMOS 2251 DEB", "OBJECT_ID": "1993-036AGC", "EPOCH": "2025-12-08T23:19:05.687904", "MEAN_MOTION": 14.46841193, "ECCENTRICITY": 0.0074204, "INCLINATION": 73.9478, "RA_OF_ASC_NODE": 241.8046, "ARG_OF_PERICENTER": 111.6456, "MEAN_ANOMALY": 265.9615, "EPHEMERIS_TYPE": 0, "CLASSIFICATION_TYPE": "U", "NORAD_CAT_ID": 35015, "ELEMENT_SET_NO": 999, "REV_AT_EPOCH": 65386, "BSTAR": 0.00095869, "MEAN_MOTION_DOT": 3.57e-05, "MEAN_MOTION_DDOT": 0}, "tle": {"line1": "1 35015U 93036AGC 25342.97159361  .00003570  00000+0  95869-3 0  9996", "line2": "2 35015  73.9478 241.8046 0074204 111.6456 265.9615 14.46841193653863"}}, "geometry": {"type": "Point", "coordinates": [58.46395004292776, -22.511918012445275]}}, {"type": "Feature", "properties": {"norad_id": 35016, "name": "COSMOS 2251 DEB", "group": "cosmos-2251-debris", "lat": 25.820543458721474, "lon": 103.34181333768848, "alt_km": 726.0456015163936, "timestamp": "2025-12-14T09:36:23.433831+00:00", "meta": {"OBJECT_NAME": "COSMOS 2251 DEB", "OBJECT_ID": "1993-036AGD", "EPOCH": "2025-12-12T14:13:37.756704", "MEAN_MOTION": 14.35060321, "ECCENTRICITY": 0.01145219, "INCLINATION": 73.9299, "RA_OF_ASC_NODE": 294.6934, "ARG_OF_PERICENTER": 211.7131, "MEAN_ANOMALY": 328.2097, "EPHEMERIS_TYPE": 0, "CLASSIFICATION_TYPE": "U", "NORAD_CAT_ID": 35016, "ELEMENT_SET_NO": 999, "REV_AT_EPOCH": 86780, "BSTAR": 0.00052896522, "MEAN_MOTION_DOT": 1.596e-05, "MEAN_MOTION_DDOT": 0}, "tle": {"line1": "1 35016U 93036AGD 25346.59279811  .00001596  00000+0  52897-3 0  9992", "line2": "2 35016  73.9299 294.6934 0114521 211.7131 328.2097 14.35060321867808"}}, "geometry": {"type": "Point", "coordinates": [103.34181333768848, 25.820543458721474]}}]}